STARLINK-30403          
1 57813U 23138F   26068.53040015 -.00002566  00000+0 -85999-4 0  9995
2 57813  43.0012 235.1058 0001540 272.1014  87.9661 15.26746502138611
FLOCK 4G-11             
1 62629U 25009W   26068.45629261  .00012672  00000+0  47740-3 0  9990
2 62629  97.3964 150.6183 0001611 333.5407  26.5750 15.27220677 63680
